STARLINK-1166
1 45060U 20006S   26061.13608098  .00069359  00000+0  14880-2 0  9997
2 45060  53.0539 308.6396 0005965 116.5767 243.5851 15.44096526335499
STARLINK-1266
1 45383U 20019Z   26061.02450748  .00080540  00000+0  17259-2 0  9992
2 45383  53.0515 169.4553 0002724 342.2773  17.8137 15.44074260329015
